APRIZESAT 2             
1 28366U 04025A   23354.49111602  .00000302  00000+0  10790-3 0  9991
2 28366  98.0927 198.3132 0108118 115.5673 245.6738 14.37150007 20955
SAUDICOMSAT 1           
1 28369U 04025D   23354.49591256  .00000881  00000+0  22094-3 0  9993
2 28369  98.5171 327.3636 0031896 289.3752  70.3997 14.53606260 31938
SAUDICOMSAT 2           
1 28370U 04025E   23354.48429099  .00000568  00000+0  16116-3 0  9999
2 28370  98.6092 327.7449 0057807 132.6125 227.9963 14.48395255 28395
APRIZESAT 1             
1 28372U 04025G   23354.45376863  .00000667  00000+0  18066-3 0  9994
2 28372  98.5705 327.2883 0046482  41.9528 318.5212 14.50395548 30003
NANOSAT-1               
1 28493U 04049B   23353.85480343  .00001639  00000+0  24754-3 0  9997
2 28493  98.1352 101.1401 0003782 350.6274   9.4864 14.75661854 20999
SAUDICOMSAT 7           
1 31119U 07012C   23354.42290564  .00000988  00000+0  19677-3 0  9991
2 31119  98.2546 302.6718 0058693 165.3170 194.9754 14.63247313889291
SAUDICOMSAT 6           
1 31121U 07012E   23353.40793082  .00001171  00000+0  24574-3 0  9991
2 31121  98.2892 296.6249 0073686 282.5544  76.7421 14.59924928887155
SAUDICOMSAT 5           
1 31124U 07012H   23354.44187962  .00001189  00000+0  22671-3 0  9998
2 31124  98.2248 303.8083 0051458 106.2813 254.4058 14.65051703890293
SAUDICOMSAT 3           
1 31125U 07012J   23353.85538520  .00001521  00000+0  27631-3 0  9994
2 31125  98.1913 304.1279 0043065  49.4653 311.0289 14.67058364891231
SAUDICOMSAT 4           
1 31127U 07012L   23354.44599595  .00001033  00000+0  21115-3 0  9990
2 31127  98.2755 301.1984 0065456 219.0360 140.6107 14.61729798888394
APRIZESAT 4             
1 35684U 09041D   23354.11633475  .00001072  00000+0  14397-3 0  9993
2 35684  98.2635  30.7429 0046305  24.5949 335.7456 14.80840385776573
APRIZESAT 3             
1 35686U 09041F   23354.26629425  .00003119  00000+0  31454-3 0  9998
2 35686  98.1061  98.5704 0069159 182.5334 177.5542 14.90122000780616
AISSAT 1                
1 36797U 10035C   23353.55509772  .00003136  00000+0  33245-3 0  9999
2 36797  98.2055 203.3182 0010376 170.2980 189.8438 14.89838945728395
S-NET D                 
1 43186U 18014G   23354.27589579  .00006571  00000+0  50177-3 0  9996
2 43186  97.6048 254.4326 0010378 256.7818 103.2249 15.02264229321471
S-NET B                 
1 43187U 18014H   23353.61139783  .00006384  00000+0  48776-3 0  9996
2 43187  97.6050 253.7158 0011339 255.1050 104.8919 15.02247869321370
S-NET A                 
1 43188U 18014J   23353.27806646  .00006818  00000+0  52053-3 0  9993
2 43188  97.6055 253.4883 0011188 256.9721 103.0255 15.02250873321322
S-NET C                 
1 43189U 18014K   23353.94687766  .00005985  00000+0  45730-3 0  9996
2 43189  97.6064 254.0543 0013022 247.5360 112.4487 15.02251482319973
SALSAT                  
1 46495U 20068K   23353.81522742  .00007160  00000+0  44260-3 0  9993
2 46495  97.7945 304.3008 0013718 202.9927 157.0689 15.10096330177065
